NORAD_CAT_ID,OBJECT_NAME,OBJECT_TYPE,EPOCH,MEAN_MOTION,ECCENTRICITY,INCLINATION,RA_OF_ASC_NODE,ARG_OF_PERICENTER,MEAN_ANOMALY,BSTAR,MEAN_MOTION_DOT,MEAN_MOTION_DDOT,TLE_LINE0,TLE_LINE1,TLE_LINE2,SEMIMAJOR_AXIS,PERIOD,APOGEE,PERIGEE,DECAYED
52266.0,STARLINK-3739,PAYLOAD,2023-02-12 20:27:47,15.08838753,0.0001546,53.2151,100.7608,101.5163,258.6003,3.7678e-05,3.12e-06,0.0,0 STARLINK-3739,1 52266U 22041F   23043.85263680  .00000312  00000-0  37678-4 0  9991,2 52266  53.2151 100.7608 0001546 101.5163 258.6003 15.08838753 46377,6917.884,95.438,540.819,538.68,0.0
52266.0,STARLINK-3739,PAYLOAD,2023-02-13 10:46:15,15.08848409,0.0001629,53.2168,98.089,121.2969,238.8183,0.00024052,3.543e-05,0.0,0 STARLINK-3739,1 52266U 22041F   23044.44879421  .00003543  00000-0  24052-3 0  9993,2 52266  53.2168  98.0890 0001629 121.2969 238.8183 15.08848409 45245,6917.855,95.437,540.847,538.593,0.0
52266.0,STARLINK-3739,PAYLOAD,2023-02-14 09:01:40,15.08836445,0.0001222,53.216,93.923,98.9235,261.1896,8.4093e-05,1.051e-05,0.0,0 STARLINK-3739,1 52266U 22041F   23045.37616111  .00001051  00000-0  84093-4 0  9995,2 52266  53.2160  93.9230 0001222  98.9235 261.1896 15.08836445 46602,6917.891,95.438,540.602,538.911,0.0
52266.0,STARLINK-3739,PAYLOAD,2023-02-14 12:12:26,15.08844744,0.0001456,53.2169,93.3282,106.2622,253.853,0.00012434,1.692e-05,0.0,0 STARLINK-3739,1 52266U 22041F   23045.50863683  .00001692  00000-0  12434-3 0  9998,2 52266  53.2169  93.3282 0001456 106.2622 253.8530 15.08844744 45405,6917.866,95.437,540.738,538.724,0.0
52266.0,STARLINK-3739,PAYLOAD,2023-02-14 15:23:12,15.08854891,9.99e-05,53.2152,92.7321,93.3881,266.7225,0.00037485,5.685e-05,0.0,0 STARLINK-3739,1 52266U 22041F   23045.64111241  .00005685  00000-0  37485-3 0  9998,2 52266  53.2152  92.7321 0000999  93.3881 266.7225 15.08854891 46643,6917.835,95.437,540.391,539.009,0.0
52266.0,STARLINK-3739,PAYLOAD,2023-02-14 20:09:21,15.08835068,5.68e-05,53.2134,91.8404,136.7514,223.3523,2.5801e-05,1.23e-06,0.0,0 STARLINK-3739,1 52266U 22041F   23045.83983702  .00000123  00000-0  25801-4 0  9990,2 52266  53.2134  91.8404 0000568 136.7514 223.3523 15.08835068 46670,6917.895,95.438,540.153,539.368,0.0
52266.0,STARLINK-3739,PAYLOAD,2023-02-15 10:27:50,15.0886305,0.0001219,53.2152,89.1643,101.8164,258.2965,0.0011469,0.00018024,0.0,0 STARLINK-3739,1 52266U 22041F   23046.43599651  .00018024  00000-0  11469-2 0  9995,2 52266  53.2152  89.1643 0001219 101.8164 258.2965 15.08863050 46762,6917.81,95.436,540.518,538.832,0.0
52266.0,STARLINK-3739,PAYLOAD,2023-02-15 12:03:13,15.08876533,0.0001209,53.2152,88.8672,103.0895,257.0232,0.0027211,0.00043328,0.0,0 STARLINK-3739,1 52266U 22041F   23046.50223590  .00043328  00000-0  27211-2 0  9996,2 52266  53.2152  88.8672 0001209 103.0895 257.0232 15.08876533 45554,6917.769,95.435,540.47,538.797,0.0
52266.0,STARLINK-3739,PAYLOAD,2023-02-15 20:00:09,15.08862139,0.0001575,53.2153,87.3803,85.2311,274.8861,0.0015215,0.00024024,0.0,0 STARLINK-3739,1 52266U 22041F   23046.83343809  .00024024  00000-0  15215-2 0  9991,2 52266  53.2153  87.3803 0001575  85.2311 274.8861 15.08862139 45603,6917.813,95.436,540.767,538.588,0.0
52266.0,STARLINK-3739,PAYLOAD,2023-02-16 05:32:27,15.08868202,0.0001063,53.2149,85.5953,94.9058,265.2056,0.0018168,0.00028767,0.0,0 STARLINK-3739,1 52266U 22041F   23047.23087228  .00028767  00000-0  18168-2 0  9994,2 52266  53.2149  85.5953 0001063  94.9058 265.2056 15.08868202 46889,6917.794,95.436,540.395,538.924,0.0
52266.0,STARLINK-3739,PAYLOAD,2023-02-16 11:53:59,15.08877541,0.0001329,53.2153,84.4062,90.227,269.8875,0.0016873,0.00026695,0.0,0 STARLINK-3739,1 52266U 22041F   23047.49582781  .00026695  00000-0  16873-2 0  9995,2 52266  53.2153  84.4062 0001329  90.2270 269.8875 15.08877541 45708,6917.766,95.435,540.55,538.711,0.0
52266.0,STARLINK-3739,PAYLOAD,2023-02-16 19:50:55,15.08840494,0.0001336,53.2153,82.9192,91.0031,269.1114,0.00022399,3.279e-05,0.0,0 STARLINK-3739,1 52266U 22041F   23047.82703367  .00003279  00000-0  22399-3 0  9991,2 52266  53.2153  82.9192 0001336  91.0031 269.1114 15.08840494 46973,6917.879,95.438,540.668,538.82,0.0
52266.0,STARLINK-3739,PAYLOAD,2023-02-17 08:34:01,15.08822506,0.0001487,53.2154,80.5404,103.2729,256.8429,0.0010002,0.00015658,0.0,0 STARLINK-3739,1 52266U 22041F   23048.35696199  .00015658  00000-0  10002-2 0  9995,2 52266  53.2154  80.5404 0001487 103.2729 256.8429 15.08822506 47057,6917.934,95.439,540.828,538.77,0.0
52266.0,STARLINK-3739,PAYLOAD,2023-02-17 14:55:34,15.08828746,9.18e-05,53.2153,79.3506,110.4665,249.6426,0.0017775,0.00028105,0.0,0 STARLINK-3739,1 52266U 22041F   23048.62192522  .00028105  00000-0  17775-2 0  9991,2 52266  53.2153  79.3506 0000918 110.4665 249.6426 15.08828746 45879,6917.915,95.438,540.415,539.145,0.0
52266.0,STARLINK-3739,PAYLOAD,2023-02-18 11:35:35,15.08842787,9.57e-05,53.2159,75.4858,99.3382,260.7718,0.0016172,0.00025545,0.0,0 STARLINK-3739,1 52266U 22041F   23049.48305546  .00025545  00000-0  16172-2 0  9993,2 52266  53.2159  75.4858 0000957  99.3382 260.7718 15.08842787 47226,6917.872,95.437,540.399,539.075,0.0
52266.0,STARLINK-3739,PAYLOAD,2023-02-18 13:10:59,15.08846915,8.3e-05,53.2155,75.1875,97.9573,262.1513,0.0016685,0.00026371,0.0,0 STARLINK-3739,1 52266U 22041F   23049.54929497  .00026371  00000-0  16685-2 0  9994,2 52266  53.2155  75.1875 0000830  97.9573 262.1513 15.08846915 46016,6917.859,95.437,540.298,539.15,0.0
52266.0,STARLINK-3739,PAYLOAD,2023-02-19 08:15:36,15.08862973,9.04e-05,53.2152,71.6189,96.0817,264.0278,0.0010287,0.00016132,0.0,0 STARLINK-3739,1 52266U 22041F   23050.34416888  .00016132  00000-0  10287-2 0  9995,2 52266  53.2152  71.6189 0000904  96.0817 264.0278 15.08862973 47354,6917.81,95.436,540.301,539.05,0.0
52266.0,STARLINK-3739,PAYLOAD,2023-02-19 13:01:45,15.0887045,9.59e-05,53.2153,70.7264,97.3925,262.7177,0.0010048,0.00015753,0.0,0 STARLINK-3739,1 52266U 22041F   23050.54288501  .00015753  00000-0  10048-2 0  9999,2 52266  53.2153  70.7264 0000959  97.3925 262.7177 15.08870450 46163,6917.787,95.436,540.316,538.989,0.0
52266.0,STARLINK-3739,PAYLOAD,2023-02-19 17:47:54,15.08852179,0.0001902,53.2163,69.8311,88.9944,271.1266,0.00043815,6.694e-05,0.0,0 STARLINK-3739,1 52266U 22041F   23050.74160683  .00006694  00000-0  43815-3 0  9994,2 52266  53.2163  69.8311 0001902  88.9944 271.1266 15.08852179 47412,6917.843,95.437,541.024,538.392,0.0
52266.0,STARLINK-3739,PAYLOAD,2023-02-20 06:30:59,15.08843343,0.000111,53.2151,67.4562,88.545,271.5669,-4.9356e-05,-1.073e-05,0.0,0 STARLINK-3739,1 52266U 22041F   23051.27152629 -.00001073  00000-0 -49356-4 0  9999,2 52266  53.2151  67.4562 0001110  88.5450 271.5669 15.08843343 47492,6917.87,95.437,540.503,538.967,0.0
52266.0,STARLINK-3739,PAYLOAD,2023-02-20 12:52:32,15.08853293,0.0001173,53.2153,66.2657,94.0651,266.0475,0.00027305,4.062e-05,0.0,0 STARLINK-3739,1 52266U 22041F   23051.53648329  .00004062  00000-0  27305-3 0  9993,2 52266  53.2153  66.2657 0001173  94.0651 266.0475 15.08853293 46319,6917.84,95.437,540.516,538.893,0.0
52266.0,STARLINK-3739,PAYLOAD,2023-02-21 11:07:55,15.08856927,0.0001044,53.2153,62.1013,98.883,261.2281,0.00049059,7.532e-05,0.0,0 STARLINK-3739,1 52266U 22041F   23052.46384114  .00007532  00000-0  49059-3 0  9990,2 52266  53.2153  62.1013 0001044  98.8830 261.2281 15.08856927 47677,6917.829,95.436,540.416,538.971,0.0
52266.0,STARLINK-3739,PAYLOAD,2023-02-21 17:29:28,15.08843807,0.000141,53.2158,60.9106,91.5134,268.602,0.0002773,4.128e-05,0.0,0 STARLINK-3739,1 52266U 22041F   23052.72880717  .00004128  00000-0  27730-3 0  9999,2 52266  53.2158  60.9106 0001410  91.5134 268.6020 15.08843807 47715,6917.869,95.437,540.709,538.758,0.0
52266.0,STARLINK-3739,PAYLOAD,2023-02-22 12:34:06,15.08846467,0.0001292,53.216,57.3437,92.0565,268.0575,0.00034644,5.231e-05,0.0,0 STARLINK-3739,1 52266U 22041F   23053.52368687  .00005231  00000-0  34644-3 0  9993,2 52266  53.2160  57.3437 0001292  92.0565 268.0575 15.08846467 46619,6917.861,95.437,540.619,538.832,0.0
52266.0,STARLINK-3739,PAYLOAD,2023-02-22 17:20:16,15.08831824,8.61e-05,53.2156,56.4519,94.1917,265.9174,-0.00010793,-2.005e-05,0.0,0 STARLINK-3739,1 52266U 22041F   23053.72240975 -.00002005  00000-0 -10793-3 0  9991,2 52266  53.2156  56.4519 0000861  94.1917 265.9174 15.08831824 47860,6917.905,95.438,540.366,539.175,0.0
52266.0,STARLINK-3739,PAYLOAD,2023-02-23 12:24:53,15.08854481,0.0001368,53.2158,52.8815,87.0163,273.0986,0.00082793,0.00012918,0.0,0 STARLINK-3739,1 52266U 22041F   23054.51728900  .00012918  00000-0  82793-3 0  9999,2 52266  53.2158  52.8815 0001368  87.0163 273.0986 15.08854481 47986,6917.836,95.437,540.647,538.755,0.0
52266.0,STARLINK-3739,PAYLOAD,2023-02-23 17:11:03,15.088458,0.0001433,53.216,51.9905,82.1046,278.0108,0.0006329,9.801e-05,0.0,0 STARLINK-3739,1 52266U 22041F   23054.71601138  .00009801  00000-0  63290-3 0  9992,2 52266  53.2160  51.9905 0001433  82.1046 278.0108 15.08845800 46792,6917.863,95.437,540.719,538.736,0.0
52266.0,STARLINK-3739,PAYLOAD,2023-02-23 23:32:35,15.08844213,0.0001465,53.2154,50.7997,86.0468,274.0691,0.00043039,6.569e-05,0.0,0 STARLINK-3739,1 52266U 22041F   23054.98097210  .00006569  00000-0  43039-3 0  9998,2 52266  53.2154  50.7997 0001465  86.0468 274.0691 15.08844213 48050,6917.868,95.437,540.746,538.719,0.0
52266.0,STARLINK-3739,PAYLOAD,2023-02-24 10:40:18,15.08837003,0.0001352,53.216,48.7194,87.9562,272.1584,0.00036045,5.453e-05,0.0,0 STARLINK-3739,1 52266U 22041F   23055.44465287  .00005453  00000-0  36045-3 0  9993,2 52266  53.2160  48.7194 0001352  87.9562 272.1584 15.08837003 48120,6917.89,95.438,540.69,538.819,0.0
52266.0,STARLINK-3739,PAYLOAD,2023-02-24 17:01:51,15.08811107,0.0001387,53.2163,47.5299,98.5964,261.5185,-0.0004966,-8.176e-05,0.0,0 STARLINK-3739,1 52266U 22041F   23055.70962136 -.00008176  00000-0 -49660-3 0  9991,2 52266  53.2163  47.5299 0001387  98.5964 261.5185 15.08811107 48168,6917.969,95.439,540.793,538.874,0.0
